{"type": "FeatureCollection", "features": [{"type": "Feature", "properties": {"norad_id": 28054, "name": "DMSP 5D-3 F16 (USA 172)", "group": "weather", "lat": -17.812557209930183, "lon": -171.25033005849878, "alt_km": 849.9139952075911, "timestamp": "2025-12-20T03:42:47.035173+00:00", "meta": {"OBJECT_NAME": "DMSP 5D-3 F16 (USA 172)", "OBJECT_ID": "2003-048A", "EPOCH": "2025-12-19T18:48:25.803072", "MEAN_MOTION": 14.14426605, "ECCENTRICITY": 0.0006307, "INCLINATION": 99.0039, "RA_OF_ASC_NODE": 11.2959, "ARG_OF_PERICENTER": 298.4816, "MEAN_ANOMALY": 171.0563, "EPHEMERIS_TYPE": 0, "CLASSIFICATION_TYPE": "U", "NORAD_CAT_ID": 28054, "ELEMENT_SET_NO": 999, "REV_AT_EPOCH": 14412, "BSTAR": 6.7968e-05, "MEAN_MOTION_DOT": 8.5e-07, "MEAN_MOTION_DDOT": 0}, "tle": {"line1": "1 28054U 03048A   25353.78363198  .00000085  00000+0  67968-4 0  9999", "line2": "2 28054  99.0039  11.2959 0006307 298.4816 171.0563 14.14426605144120"}}, "geometry": {"type": "Point", "coordinates": [-171.25033005849878, -17.812557209930183]}}, {"type": "Feature", "properties": {"norad_id": 28912, "name": "METEOSAT-9 (MSG-2)", "group": "weather", "lat": 6.522673242864737, "lon": -170.67686022860477, "alt_km": 36081.749883812125, "timestamp": "2025-12-20T03:42:47.035220+00:00", "meta": {"OBJECT_NAME": "METEOSAT-9 (MSG-2)", "OBJECT_ID": "2005-049B", "EPOCH": "2025-12-18T20:21:29.033280", "MEAN_MOTION": 1.00264866, "ECCENTRICITY": 0.0082047, "INCLINATION": 8.9417, "RA_OF_ASC_NODE": 55.9014, "ARG_OF_PERICENTER": 282.314, "MEAN_ANOMALY": 99.6592, "EPHEMERIS_TYPE": 0, "CLASSIFICATION_TYPE": "U", "NORAD_CAT_ID": 28912, "ELEMENT_SET_NO": 999, "REV_AT_EPOCH": 519, "BSTAR": 0, "MEAN_MOTION_DOT": 1.45e-06, "MEAN_MOTION_DDOT": 0}, "tle": {"line1": "1 28912U 05049B   25352.84825270  .00000145  00000+0  00000+0 0  9991", "line2": "2 28912   8.9417  55.9014 0082047 282.3140  99.6592  1.00264866  5196"}}, "geometry": {"type": "Point", "coordinates": [-170.67686022860477, 6.522673242864737]}}, {"type": "Feature", "properties": {"norad_id": 29522, "name": "DMSP 5D-3 F17 (USA 191)", "group": "weather", "lat": 28.203497296307713, "lon": -175.87905295283193, "alt_km": 836.8737357096434, "timestamp": "2025-12-20T03:42:47.035238+00:00", "meta": {"OBJECT_NAME": "DMSP 5D-3 F17 (USA 191)", "OBJECT_ID": "2006-050A", "EPOCH": "2025-12-19T18:30:49.564800", "MEAN_MOTION": 14.1492252, "ECCENTRICITY": 0.0009697, "INCLINATION": 98.739, "RA_OF_ASC_NODE": 359.0141, "ARG_OF_PERICENTER": 203.6273, "MEAN_ANOMALY": 156.4456, "EPHEMERIS_TYPE": 0, "CLASSIFICATION_TYPE": "U", "NORAD_CAT_ID": 29522, "ELEMENT_SET_NO": 999, "REV_AT_EPOCH": 98704, "BSTAR": 8.7524e-05, "MEAN_MOTION_DOT": 1.26e-06, "MEAN_MOTION_DDOT": 0}, "tle": {"line1": "1 29522U 06050A   25353.77140700  .00000126  00000+0  87524-4 0  9993", "line2": "2 29522  98.7390 359.0141 0009697 203.6273 156.4456 14.14922520987044"}}, "geometry": {"type": "Point", "coordinates": [-175.87905295283193, 28.203497296307713]}}, {"type": "Feature", "properties": {"norad_id": 32958, "name": "FENGYUN 3A", "group": "weather", "lat": -12.017096147865997, "lon": -64.6131526994451, "alt_km": 828.6480944242167, "timestamp": "2025-12-20T03:42:47.035253+00:00", "meta": {"OBJECT_NAME": "FENGYUN 3A", "OBJECT_ID": "2008-026A", "EPOCH": "2025-12-19T14:14:12.505056", "MEAN_MOTION": 14.19516596, "ECCENTRICITY": 0.0007684, "INCLINATION": 98.6705, "RA_OF_ASC_NODE": 292.9758, "ARG_OF_PERICENTER": 288.4847, "MEAN_ANOMALY": 71.5494, "EPHEMERIS_TYPE": 0, "CLASSIFICATION_TYPE": "U", "NORAD_CAT_ID": 32958, "ELEMENT_SET_NO": 999, "REV_AT_EPOCH": 90992, "BSTAR": 5.2028e-05, "MEAN_MOTION_DOT": 6.6e-07, "MEAN_MOTION_DDOT": 0}, "tle": {"line1": "1 32958U 08026A   25353.59320029  .00000066  00000+0  52028-4 0  9993", "line2": "2 32958  98.6705 292.9758 0007684 288.4847  71.5494 14.19516596909928"}}, "geometry": {"type": "Point", "coordinates": [-64.6131526994451, -12.017096147865997]}}, {"type": "Feature", "properties": {"norad_id": 35491, "name": "GOES 14", "group": "weather", "lat": -0.9864774506930103, "lon": 30.257487696103524, "alt_km": 35836.57262397631, "timestamp": "2025-12-20T03:42:47.035267+00:00", "meta": {"OBJECT_NAME": "GOES 14", "OBJECT_ID": "2009-033A", "EPOCH": "2025-12-19T11:12:46.867104", "MEAN_MOTION": 1.00096833, "ECCENTRICITY": 5.13e-05, "INCLINATION": 1.2203, "RA_OF_ASC_NODE": 85.3391, "ARG_OF_PERICENTER": 179.3818, "MEAN_ANOMALY": 237.7883, "EPHEMERIS_TYPE": 0, "CLASSIFICATION_TYPE": "U", "NORAD_CAT_ID": 35491, "ELEMENT_SET_NO": 999, "REV_AT_EPOCH": 479, "BSTAR": 0, "MEAN_MOTION_DOT": 1.8e-07, "MEAN_MOTION_DDOT": 0}, "tle": {"line1": "1 35491U 09033A   25353.46720911  .00000018  00000+0  00000+0 0  9992", "line2": "2 35491   1.2203  85.3391 0000513 179.3818 237.7883  1.00096833  4795"}}, "geometry": {"type": "Point", "coordinates": [30.257487696103524, -0.9864774506930103]}}, {"type": "Feature", "properties": {"norad_id": 35951, "name": "DMSP 5D-3 F18 (USA 210)", "group": "weather", "lat": 14.569745917322258, "lon": -31.8112792773334, "alt_km": 836.3434508047958, "timestamp": "2025-12-20T03:42:47.035280+00:00", "meta": {"OBJECT_NAME": "DMSP 5D-3 F18 (USA 210)", "OBJECT_ID": "2009-057A", "EPOCH": "2025-12-19T20:51:15.717888", "MEAN_MOTION": 14.14773684, "ECCENTRICITY": 0.0011895, "INCLINATION": 98.8841, "RA_OF_ASC_NODE": 330.2343, "ARG_OF_PERICENTER": 43.993, "MEAN_ANOMALY": 316.2188, "EPHEMERIS_TYPE": 0, "CLASSIFICATION_TYPE": "U", "NORAD_CAT_ID": 35951, "ELEMENT_SET_NO": 999, "REV_AT_EPOCH": 83423, "BSTAR": 0.00013066, "MEAN_MOTION_DOT": 2.08e-06, "MEAN_MOTION_DDOT": 0}, "tle": {"line1": "1 35951U 09057A   25353.86893192  .00000208  00000+0  13066-3 0  9996", "line2": "2 35951  98.8841 330.2343 0011895  43.9930 316.2188 14.14773684834237"}}, "geometry": {"type": "Point", "coordinates": [-31.8112792773334, 14.569745917322258]}}, {"type": "Feature", "properties": {"norad_id": 36411, "name": "EWS-G2 (GOES 15)", "group": "weather", "lat": 0.7061915425409054, "lon": -154.00383891667798, "alt_km": 35773.71825230453, "timestamp": "2025-12-20T03:42:47.035293+00:00", "meta": {"OBJECT_NAME": "EWS-G2 (GOES 15)", "OBJECT_ID": "2010-008A", "EPOCH": "2025-12-19T20:34:05.391840", "MEAN_MOTION": 1.00270915, "ECCENTRICITY": 0.0005466, "INCLINATION": 0.8304, "RA_OF_ASC_NODE": 86.0831, "ARG_OF_PERICENTER": 177.2487, "MEAN_ANOMALY": 195.2571, "EPHEMERIS_TYPE": 0, "CLASSIFICATION_TYPE": "U", "NORAD_CAT_ID": 36411, "ELEMENT_SET_NO": 999, "REV_AT_EPOCH": 5784, "BSTAR": 0, "MEAN_MOTION_DOT": 6.2e-07, "MEAN_MOTION_DDOT": 0}, "tle": {"line1": "1 36411U 10008A   25353.85700685  .00000062  00000+0  00000+0 0  9997", "line2": "2 36411   0.8304  86.0831 0005466 177.2487 195.2571  1.00270915 57844"}}, "geometry": {"type": "Point", "coordinates": [-154.00383891667798, 0.7061915425409054]}}, {"type": "Feature", "properties": {"norad_id": 36744, "name": "COMS 1", "group": "weather", "lat": -1.1496830424687965, "lon": -87.18252298811967, "alt_km": 35783.136709872386, "timestamp": "2025-12-20T03:42:47.035307+00:00", "meta": {"OBJECT_NAME": "COMS 1", "OBJECT_ID": "2010-032A", "EPOCH": "2025-12-19T17:17:45.777408", "MEAN_MOTION": 1.00272646, "ECCENTRICITY": 7.08e-05, "INCLINATION": 4.3564, "RA_OF_ASC_NODE": 77.921, "ARG_OF_PERICENTER": 207.8228, "MEAN_ANOMALY": 190.4357, "EPHEMERIS_TYPE": 0, "CLASSIFICATION_TYPE": "U", "NORAD_CAT_ID": 36744, "ELEMENT_SET_NO": 999, "REV_AT_EPOCH": 4929, "BSTAR": 0, "MEAN_MOTION_DOT": -3.23e-06, "MEAN_MOTION_DDOT": 0}, "tle": {"line1": "1 36744U 10032A   25353.72066872 -.00000323  00000+0  00000+0 0  9993", "line2": "2 36744   4.3564  77.9210 0000708 207.8228 190.4357  1.00272646 49299"}}, "geometry": {"type": "Point", "coordinates": [-87.18252298811967, -1.1496830424687965]}}, {"type": "Feature", "properties": {"norad_id": 37214, "name": "FENGYUN 3B", "group": "weather", "lat": -19.782628337830214, "lon": 37.44809385575414, "alt_km": 832.4514639439067, "timestamp": "2025-12-20T03:42:47.035319+00:00", "meta": {"OBJECT_NAME": "FENGYUN 3B", "OBJECT_ID": "2010-059A", "EPOCH": "2025-12-19T19:50:25.220256", "MEAN_MOTION": 14.14791821, "ECCENTRICITY": 0.0021709, "INCLINATION": 98.9902, "RA_OF_ASC_NODE": 33.8536, "ARG_OF_PERICENTER": 337.5276, "MEAN_ANOMALY": 132.7206, "EPHEMERIS_TYPE": 0, "CLASSIFICATION_TYPE": "U", "NORAD_CAT_ID": 37214, "ELEMENT_SET_NO": 999, "REV_AT_EPOCH": 78206, "BSTAR": 4.4049e-05, "MEAN_MOTION_DOT": 4e-07, "MEAN_MOTION_DDOT": 0}, "tle": {"line1": "1 37214U 10059A   25353.82668079  .00000040  00000+0  44049-4 0  9994", "line2": "2 37214  98.9902  33.8536 0021709 337.5276 132.7206 14.14791821782068"}}, "geometry": {"type": "Point", "coordinates": [37.44809385575414, -19.782628337830214]}}, {"type": "Feature", "properties": {"norad_id": 37849, "name": "SUOMI NPP", "group": "weather", "lat": -52.52055843676317, "lon": -56.94515312320895, "alt_km": 835.5203176262594, "timestamp": "2025-12-20T03:42:47.035331+00:00", "meta": {"OBJECT_NAME": "SUOMI NPP", "OBJECT_ID": "2011-061A", "EPOCH": "2025-12-17T23:31:21.474624", "MEAN_MOTION": 14.19515682, "ECCENTRICITY": 0.00023932, "INCLINATION": 98.7779, "RA_OF_ASC_NODE": 289.2746, "ARG_OF_PERICENTER": 111.1248, "MEAN_ANOMALY": 249.0184, "EPHEMERIS_TYPE": 0, "CLASSIFICATION_TYPE": "U", "NORAD_CAT_ID": 37849, "ELEMENT_SET_NO": 999, "REV_AT_EPOCH": 73273, "BSTAR": 4.8615036e-05, "MEAN_MOTION_DOT": 5.8e-07, "MEAN_MOTION_DDOT": 0}, "tle": {"line1": "1 37849U 11061A   25351.98010966  .00000058  00000+0  48615-4 0  9995", "line2": "2 37849  98.7779 289.2746 0002393 111.1248 249.0184 14.19515682732735"}}, "geometry": {"type": "Point", "coordinates": [-56.94515312320895, -52.52055843676317]}}]}